store_id,store_name,phone,email,street,city,state,zip_code
1,Newton-Rice,(638) 700-2428,cobbryan@eample.org,6634 Ashley Unions,Martinezfort,Alaska,46160
2,Howard Payne and Lynn,(396) 440-2681,theresa43@eample.com,96672 Danielle Forges Suite 418,Joshuafurt,Utah,3962
3,Mcfarland Inc,(337) 883-2288,aaron64@eample.com,3323 Velasquez Etension Suite 479,Garciashire,Florida,84350
4,Evans PLC,(651) 387-7497,jenniferaleander@eample.com,16452 Dunn Field,North Williammouth,Virginia,80268
5,Ruiz-Guzman,(412) 822-6779,steintroy@eample.net,7050 Victoria Skyway Apt. 584,Brockfort,Wyoming,59783
6,Perez PLC,(530) 000-0000,tamara09@eample.org,19355 Amanda Camp,Russellshire,Illinois,77223
7,Burns Velazquez and Williams,(746) 405-9950,caroline38@eample.net,107 Courtney Etensions,Smithchester,Rhode Island,81983
8,Young Barnes and Lopez,(700) 782-0980,lawrencerivera@eample.org,2561 Lisa Glens Apt. 516,North Noah,Louisiana,10565
9,Boone-Williams,(913) 344-9490,chadcollins@eample.com,70739 Lawrence Motorway,South Jessicaview,Connecticut,43620
10,Russell-Spencer,(885) 556-2248,ygibson@eample.net,126 Jones Station Apt. 841,Randyside,West Virginia,24361
11,Preston Collins and Mccoy,(257) 412-8902,karenjohnson@eample.org,0628 Stephanie Throughway Suite 227,Maryton,Oklahoma,2088
12,Ward LLC,(470) 961-2900,zhernandez@eample.com,6732 Courtney Common,Palmershire,Pennsylvania,84709
13,Wells Martin and Howell,(803) 372-3598,halltheresa@eample.net,11011 Brown Prairie Apt. 375,South Maria,Maine,61134
14,Snyder Long and Pena,(434) 422-7359,wpadilla@eample.org,656 Frank Flat,North Kevinside,New Jersey,95204
15,Hall Graham and Boyd,(773) 883-4177,yoderlarry@eample.net,2351 Bates Ports,North John,Indiana,96868
16,Berry and Sons,(810) 899-0021,anthonyhines@eample.com,2610 Michael Motorway Apt. 671,Lake Nicolefurt,Alabama,46669
17,Martinez Ortiz and King,(237) 236-4203,karenschroeder@eample.com,6493 Kelley Locks,Lewisburgh,California,52714
18,Terrell-Watson,(370) 877-4208,travis98@eample.net,0148 Grant Pass,New Billfurt,Delaware,23216
19,Floyd Ltd,(346) 438-6765,aleanderphillips@eample.net,2729 Barbara Groves,Kevinberg,California,57915
20,Brown Walker and Smith,(752) 300-3770,hollythomas@eample.org,199 Jessica Estates,Rosschester,Montana,63746
21,Martin-Jennings,(731) 373-1070,imoore@eample.com,746 Smith Rue,New Leemouth,Florida,26216
22,Grimes LLC,(349) 539-2301,tylerchen@eample.com,3865 Carolyn Drive,Port Meghan,Connecticut,32662
23,Williams-Robertson,(985) 365-6757,halllauren@eample.com,6618 Romero Burgs,East Jonathanberg,Alabama,57020
24,Hunter Schmidt and Garza,(997) 623-3892,vlang@eample.net,1221 Zimmerman Rue,North Crystalbury,Virginia,77896
25,Brown Knapp and Weber,(385) 846-3772,gabrielleshaw@eample.org,5292 Joseph Stravenue,Boylemouth,Oklahoma,69767
26,Jones and Sons,(794) 697-6234,james83@eample.org,6835 Tony Turnpike,Lake Robertport,Kentucky,63045
27,Nguyen and Sons,(793) 325-0907,hsoto@eample.net,4324 Adam Unions,West Jonathan,New Jersey,92610
28,Murphy-Nguyen,(584) 919-0049,fclarke@eample.org,1333 Moore Hill Apt. 096,West Katherine,Mississippi,84056
29,Aguirre LLC,(745) 865-9650,msalazar@eample.com,002 Lisa Via Suite 049,Thomasland,Rhode Island,75786
30,Hall Perkins and Sanchez,(309) 640-3763,imurphy@eample.org,80962 Wanda Shoals,Lake Danielleside,Nebraska,12144
31,Fitzpatrick LLC,(980) 839-6866,mhall@eample.net,81354 Warren Branch Suite 476,East Aleiston,Nebraska,37894
32,Adams Hall and Huber,(476) 574-1723,fuentesisabella@eample.org,5037 Davis Path Suite 548,Diazburgh,West Virginia,79716
33,Gibson Irwin and Hall,(204) 352-5365,acastillo@eample.com,64721 Laura Springs Apt. 610,West Timothy,Oklahoma,48336
34,Wilson-Miller,(917) 336-0955,hornamanda@eample.com,4304 Garza Dale Suite 852,New Colleen,Florida,90228
35,Perez PLC,(117) 731-5600,pfoster@eample.org,1657 Daniel Spur,Barrettborough,Louisiana,72584
36,Trujillo-Lee,(717) 351-7484,danielle07@eample.com,44407 Sheila Crest Suite 368,West Lisa,Tennessee,4140
37,Martin PLC,(525) 565-6987,ramirezronnie@eample.com,9827 Mary Islands Apt. 048,Wallsburgh,Nevada,99829
38,Jenkins-Ramirez,(578) 265-3160,jordanjonathan@eample.com,3177 Alyssa Club,South Chadburgh,New Meico,45323
39,Pugh-Hughes,(973) 879-6067,lisa15@eample.com,998 Bishop View Apt. 683,New Amy,California,25122
40,Hernandez-Stewart,(655) 271-8675,michael21@eample.org,95238 Timothy Walk,Lindsayfort,New Hampshire,26910
41,Cannon Downs and Davis,(462) 227-6804,morancasey@eample.org,1550 Tanner Locks,Lake John,North Carolina,23569
42,Turner-Ferguson,(551) 379-2636,kpruitt@eample.net,0649 Dylan Camp Apt. 193,Jeffersonhaven,West Virginia,8329
43,Irwin Zavala and Howell,(494) 322-2690,debra75@eample.com,5626 Pamela Key Apt. 165,Amandamouth,Illinois,81070
44,Shaffer-Walker,(955) 638-1205,toddmichael@eample.com,7781 John Spur Apt. 004,Keithbury,North Carolina,51953
45,Jenkins Park and Evans,(878) 700-0000,joseph04@eample.net,73543 Sullivan Passage,Lake Lisa,Delaware,74677
46,Crosby-Boyle,(619) 291-8629,morachristine@eample.net,590 Richard Springs,West Tammy,Delaware,86071
47,Coleman-Davis,(854) 457-0000,john32@eample.net,350 Aguilar Parkways,Avilaview,West Virginia,28600
48,Aleander Ltd,(627) 715-4397,barbarareid@eample.com,55401 Davis Knolls Suite 559,Lake Amanda,Arkansas,61686
49,Savage Sullivan and Hughes,(793) 972-1989,jamesjulia@eample.org,2425 Brent Harbor Apt. 756,Huntland,Idaho,70630
50,Hoffman and Sons,(123) 456-7890,amorris@eample.net,74869 Doyle Hill Suite 888,Leeton,New Hampshire,22682
